NORAD_CAT_ID,OBJECT_NAME,OBJECT_TYPE,EPOCH,MEAN_MOTION,ECCENTRICITY,INCLINATION,RA_OF_ASC_NODE,ARG_OF_PERICENTER,MEAN_ANOMALY,BSTAR,MEAN_MOTION_DOT,MEAN_MOTION_DDOT,TLE_LINE0,TLE_LINE1,TLE_LINE2,SEMIMAJOR_AXIS,PERIOD,APOGEE,PERIGEE,DECAYED
49769.0,STARLINK-3208,PAYLOAD,2024-04-11 11:39:10,15.08841299,0.0001453,53.2183,29.0408,85.0955,275.0203,3.7075e-05,3.02e-06,0.0,0 STARLINK-3208,1 49769U 21115AX  24102.48553695  .00000302  00000-0  37075-4 0  9990,2 49769  53.2183  29.0408 0001453  85.0955 275.0203 15.08841299130423,6917.876,95.437,540.747,538.736,0.0
49769.0,STARLINK-3208,PAYLOAD,2024-04-12 01:57:38,15.0884202,0.0001344,53.2178,26.3655,91.5505,268.5641,0.00015307,2.149e-05,0.0,0 STARLINK-3208,1 49769U 21115AX  24103.08169690  .00002149  00000-0  15307-3 0  9999,2 49769  53.2178  26.3655 0001344  91.5505 268.5641 15.08842020130519,6917.874,95.437,540.669,538.809,0.0
49769.0,STARLINK-3208,PAYLOAD,2024-04-12 22:37:39,15.08840556,0.0001256,53.2175,22.5007,93.6948,266.4187,-1.6572e-05,-5.52e-06,0.0,0 STARLINK-3208,1 49769U 21115AX  24103.94281789 -.00000552  00000-0 -16572-4 0  9992,2 49769  53.2175  22.5007 0001256  93.6948 266.4187 15.08840556130649,6917.879,95.438,540.613,538.875,0.0
49769.0,STARLINK-3208,PAYLOAD,2024-04-13 04:59:11,15.08846283,0.0001324,53.2179,21.3124,99.7224,260.3918,7.534e-05,9.12e-06,0.0,0 STARLINK-3208,1 49769U 21115AX  24104.20777467  .00000912  00000-0  75340-4 0  9991,2 49769  53.2179  21.3124 0001324  99.7224 260.3918 15.08846283131795,6917.861,95.437,540.642,538.81,0.0
49769.0,STARLINK-3208,PAYLOAD,2024-04-14 01:39:13,15.08820682,0.000134,53.2176,17.4434,91.9034,268.2111,0.00065214,0.00010101,0.0,0 STARLINK-3208,1 49769U 21115AX  24105.06890900  .00010101  00000-0  65214-3 0  9993,2 49769  53.2176  17.4434 0001340  91.9034 268.2111 15.08820682131925,6917.939,95.439,540.731,538.877,0.0
49769.0,STARLINK-3208,PAYLOAD,2024-04-14 22:19:13,15.08842411,0.0001292,53.2182,13.5747,83.1148,276.9991,0.00011085,1.477e-05,0.0,0 STARLINK-3208,1 49769U 21115AX  24105.93001908  .00001477  00000-0  11085-3 0  9994,2 49769  53.2182  13.5747 0001292  83.1148 276.9991 15.08842411130948,6917.873,95.437,540.632,538.844,0.0
49769.0,STARLINK-3208,PAYLOAD,2024-04-15 03:05:22,15.08847818,0.0001435,53.2186,12.6854,86.7336,273.382,0.00042753,6.524e-05,0.0,0 STARLINK-3208,1 49769U 21115AX  24106.12873755  .00006524  00000-0  42753-3 0  9997,2 49769  53.2186  12.6854 0001435  86.7336 273.3820 15.08847818132083,6917.856,95.437,540.714,538.729,0.0
49769.0,STARLINK-3208,PAYLOAD,2024-04-15 23:45:23,15.08843746,0.0001473,53.2184,8.8162,81.8238,278.2921,0.0001518,2.129e-05,0.0,0 STARLINK-3208,1 49769U 21115AX  24106.98985982  .00002129  00000-0  15180-3 0  9998,2 49769  53.2184   8.8162 0001473  81.8238 278.2921 15.08843746132216,6917.869,95.437,540.753,538.715,0.0
49769.0,STARLINK-3208,PAYLOAD,2024-04-16 10:53:05,15.08854473,0.0001197,53.2172,6.7392,89.6216,270.4913,0.00037639,5.71e-05,0.0,0 STARLINK-3208,1 49769U 21115AX  24107.45353423  .00005710  00000-0  37639-3 0  9992,2 49769  53.2172   6.7392 0001197  89.6216 270.4913 15.08854473131178,6917.836,95.437,540.529,538.873,0.0
49769.0,STARLINK-3208,PAYLOAD,2024-04-16 22:00:46,15.08860577,0.0001409,53.2181,4.6575,92.7525,267.3628,0.00045581,6.978e-05,0.0,0 STARLINK-3208,1 49769U 21115AX  24107.91721039  .00006978  00000-0  45581-3 0  9997,2 49769  53.2181   4.6575 0001409  92.7525 267.3628 15.08860577131240,6917.817,95.436,540.657,538.708,0.0
49769.0,STARLINK-3208,PAYLOAD,2024-04-17 02:46:55,15.08875353,0.0001599,53.2179,3.7626,111.9418,248.1745,0.00092732,0.00014515,0.0,0 STARLINK-3208,1 49769U 21115AX  24108.11592465  .00014515  00000-0  92732-3 0  9995,2 49769  53.2179   3.7626 0001599 111.9418 248.1745 15.08875353132380,6917.772,95.435,540.743,538.531,0.0
49769.0,STARLINK-3208,PAYLOAD,2024-04-17 20:16:11,15.08828879,0.0001655,53.2176,0.4948,104.236,255.8816,-0.00025705,-4.375e-05,0.0,0 STARLINK-3208,1 49769U 21115AX  24108.84457908 -.00004375  00000-0 -25705-3 0  9998,2 49769  53.2176   0.4948 0001655 104.2360 255.8816 15.08828879132499,6917.914,95.438,540.924,538.634,0.0
49769.0,STARLINK-3208,PAYLOAD,2024-04-17 21:51:34,15.08827886,0.00016,53.2179,0.1979,99.4071,260.7102,-0.00022941,-3.936e-05,0.0,0 STARLINK-3208,1 49769U 21115AX  24108.91082027 -.00003936  00000-0 -22941-3 0  9993,2 49769  53.2179   0.1979 0001600  99.4071 260.7102 15.08827886131395,6917.917,95.438,540.889,538.676,0.0
49769.0,STARLINK-3208,PAYLOAD,2024-04-18 02:37:44,15.08827842,0.0001553,53.2181,359.3048,89.9875,270.1295,-3.982e-05,-9.21e-06,0.0,0 STARLINK-3208,1 49769U 21115AX  24109.10954315 -.00000921  00000-0 -39820-4 0  9999,2 49769  53.2181 359.3048 0001553  89.9875 270.1295 15.08827842131421,6917.918,95.438,540.857,538.708,0.0
49769.0,STARLINK-3208,PAYLOAD,2024-04-18 21:42:22,15.08843831,0.0001617,53.2186,355.737,83.9839,276.1337,0.00089006,0.00013907,0.0,0 STARLINK-3208,1 49769U 21115AX  24109.90442884  .00013907  00000-0  89006-3 0  9996,2 49769  53.2186 355.7370 0001617  83.9839 276.1337 15.08843831131541,6917.869,95.437,540.852,538.615,0.0
49769.0,STARLINK-3208,PAYLOAD,2024-04-18 23:17:45,15.08853103,0.0001668,53.2181,355.4385,89.1924,270.9259,0.0012512,0.00019688,0.0,0 STARLINK-3208,1 49769U 21115AX  24109.97066751  .00019688  00000-0  12512-2 0  9997,2 49769  53.2181 355.4385 0001668  89.1924 270.9259 15.08853103132660,6917.84,95.437,540.859,538.551,0.0
49769.0,STARLINK-3208,PAYLOAD,2024-04-19 15:11:37,15.08857133,0.0002284,53.2178,352.4674,63.6735,296.4491,0.00093359,0.00014608,0.0,0 STARLINK-3208,1 49769U 21115AX  24110.63306786  .00014608  00000-0  93359-3 0  9993,2 49769  53.2178 352.4674 0002284  63.6735 296.4491 15.08857133131652,6917.828,95.436,541.273,538.113,0.0
49769.0,STARLINK-3208,PAYLOAD,2024-04-19 19:57:46,15.08865978,0.0001536,53.2185,351.574,85.2307,274.8861,0.0010618,0.00016663,0.0,0 STARLINK-3208,1 49769U 21115AX  24110.83178306  .00016663  00000-0  10618-2 0  9999,2 49769  53.2185 351.5740 0001536  85.2307 274.8861 15.08865978132791,6917.801,95.436,540.729,538.603,0.0
49769.0,STARLINK-3208,PAYLOAD,2024-04-19 21:33:09,15.08870364,0.0001554,53.2182,351.2763,86.5576,273.5594,0.0011845,0.00018629,0.0,0 STARLINK-3208,1 49769U 21115AX  24110.89802151  .00018629  00000-0  11845-2 0  9994,2 49769  53.2182 351.2763 0001554  86.5576 273.5594 15.08870364131694,6917.788,95.436,540.728,538.578,0.0
49769.0,STARLINK-3208,PAYLOAD,2024-04-20 00:43:54,15.08883032,0.0001522,53.2182,350.6813,88.3727,271.7439,0.0015656,0.00024746,0.0,0 STARLINK-3208,1 49769U 21115AX  24111.03049706  .00024746  00000-0  15656-2 0  9991,2 49769  53.2182 350.6813 0001522  88.3727 271.7439 15.08883032132826,6917.749,95.435,540.667,538.561,0.0
49769.0,STARLINK-3208,PAYLOAD,2024-04-20 15:02:23,15.0883429,0.0001148,53.2176,348.0056,131.8542,228.2548,0.00047024,7.203e-05,0.0,0 STARLINK-3208,1 49769U 21115AX  24111.62666452  .00007203  00000-0  47024-3 0  9993,2 49769  53.2176 348.0056 0001148 131.8542 228.2548 15.08834290131809,6917.898,95.438,540.557,538.969,0.0
49769.0,STARLINK-3208,PAYLOAD,2024-04-20 19:48:33,15.0880969,8.36e-05,53.2173,347.1106,34.5617,325.543,0.00049067,7.523e-05,0.0,0 STARLINK-3208,1 49769U 21115AX  24111.82539330  .00007523  00000-0  49067-3 0  9993,2 49769  53.2173 347.1106 0000836  34.5617 325.5430 15.08809690132940,6917.973,95.439,540.416,539.26,0.0
49769.0,STARLINK-3208,PAYLOAD,2024-04-20 21:23:57,15.08789523,0.0001344,53.2173,346.8194,109.4014,250.7123,1.0359e-05,-1.23e-06,0.0,0 STARLINK-3208,1 49769U 21115AX  24111.89163461 -.00000123  00000-0  10359-4 0  9991,2 49769  53.2173 346.8194 0001344 109.4014 250.7123 15.08789523131849,6918.035,95.441,540.829,538.97,0.0
49769.0,STARLINK-3208,PAYLOAD,2024-04-21 00:34:43,15.0879503,0.0001532,53.2174,346.2249,117.0214,243.0934,-0.00075869,-0.00012327,0.0,0 STARLINK-3208,1 49769U 21115AX  24112.02411708 -.00012327  00000-0 -75869-3 0  9993,2 49769  53.2174 346.2249 0001532 117.0214 243.0934 15.08795030131868,6918.018,95.44,540.943,538.823,0.0
49769.0,STARLINK-3208,PAYLOAD,2024-04-21 21:14:45,15.08866607,0.0001289,53.2163,342.3595,110.8405,249.2725,0.0028221,0.00044945,0.0,0 STARLINK-3208,1 49769U 21115AX  24112.88524634  .00044945  00000-0  28221-2 0  9998,2 49769  53.2163 342.3595 0001289 110.8405 249.2725 15.08866607133103,6917.799,95.436,540.556,538.772,0.0
49769.0,STARLINK-3208,PAYLOAD,2024-04-21 22:50:08,15.08877168,0.0001344,53.2167,342.0624,109.8751,250.2386,0.0031366,0.00050037,0.0,0 STARLINK-3208,1 49769U 21115AX  24112.95148500  .00050037  00000-0  31366-2 0  9993,2 49769  53.2167 342.0624 0001344 109.8751 250.2386 15.08877168132008,6917.767,95.435,540.562,538.702,0.0
49769.0,STARLINK-3208,PAYLOAD,2024-04-22 00:25:31,15.08886382,0.0001332,53.2165,341.7634,113.8612,246.252,0.003162,0.0005046,0.0,0 STARLINK-3208,1 49769U 21115AX  24113.01772254  .00050460  00000-0  31620-2 0  9993,2 49769  53.2165 341.7634 0001332 113.8612 246.2520 15.08886382133128,6917.739,95.435,540.525,538.682,0.0
49769.0,STARLINK-3208,PAYLOAD,2024-04-22 19:30:08,15.08875494,0.0001316,53.2167,338.1983,115.0162,245.0967,0.0025199,0.00040084,0.0,0 STARLINK-3208,1 49769U 21115AX  24113.81260383  .00040084  00000-0  25199-2 0  9991,2 49769  53.2167 338.1983 0001316 115.0162 245.0967 15.08875494133240,6917.772,95.435,540.547,538.727,0.0
49769.0,STARLINK-3208,PAYLOAD,2024-04-22 22:40:55,15.08849014,0.0001071,53.2159,337.6043,90.8422,269.2693,0.001958,0.00031019,0.0,0 STARLINK-3208,1 49769U 21115AX  24113.94508334  .00031019  00000-0  19580-2 0  9991,2 49769  53.2159 337.6043 0001071  90.8422 269.2693 15.08849014132151,6917.853,95.437,540.459,538.977,0.0
49769.0,STARLINK-3208,PAYLOAD,2024-04-23 00:16:18,15.08853829,0.0001014,53.2158,337.3064,96.8116,263.2991,0.0024396,0.00038767,0.0,0 STARLINK-3208,1 49769U 21115AX  24114.01132301  .00038767  00000-0  24396-2 0  9995,2 49769  53.2158 337.3064 0001014  96.8116 263.2991 15.08853829133271,6917.838,95.437,540.405,539.002,0.0
